[{"OBJECT_NAME":"TIANMU-1 07","OBJECT_ID":"2023-101A","EPOCH":"2026-03-06T13:47:20.454720","MEAN_MOTION":15.29118809,"ECCENTRICITY":0.00046097,"INCLINATION":97.2728,"RA_OF_ASC_NODE":118.5929,"ARG_OF_PERICENTER":142.4105,"MEAN_ANOMALY":217.7458,"EPHEMERIS_TYPE":0,"CLASSIFICATION_TYPE":"U","NORAD_CAT_ID":57399,"ELEMENT_SET_NO":999,"REV_AT_EPOCH":14596,"BSTAR":0.00029794732,"MEAN_MOTION_DOT":8.352e-5,"MEAN_MOTION_DDOT":0},{"OBJECT_NAME":"STARLINK-32792","OBJECT_ID":"2025-003T","EPOCH":"2026-03-09T00:24:36.687456","MEAN_MOTION":15.27590551,"ECCENTRICITY":0.00028381,"INCLINATION":43.0047,"RA_OF_ASC_NODE":292.3353,"ARG_OF_PERICENTER":267.8512,"MEAN_ANOMALY":92.2014,"EPHEMERIS_TYPE":0,"CLASSIFICATION_TYPE":"U","NORAD_CAT_ID":62504,"ELEMENT_SET_NO":999,"REV_AT_EPOCH":6645,"BSTAR":0.0012676334,"MEAN_MOTION_DOT":0.00034798,"MEAN_MOTION_DDOT":0}]
